[{"OBJECT_NAME":"GLOBAL-2","OBJECT_ID":"2018-099BG","EPOCH":"2026-03-09T16:47:21.463008","MEAN_MOTION":15.08046936,"ECCENTRICITY":0.00074537,"INCLINATION":97.3697,"RA_OF_ASC_NODE":109.328,"ARG_OF_PERICENTER":127.1924,"MEAN_ANOMALY":232.9986,"EPHEMERIS_TYPE":0,"CLASSIFICATION_TYPE":"U","NORAD_CAT_ID":43812,"ELEMENT_SET_NO":999,"REV_AT_EPOCH":39691,"BSTAR":0.0002614533,"MEAN_MOTION_DOT":3.97e-5,"MEAN_MOTION_DDOT":0},{"OBJECT_NAME":"STARLINK-5231","OBJECT_ID":"2022-141AB","EPOCH":"2026-03-09T22:48:54.033696","MEAN_MOTION":15.08841807,"ECCENTRICITY":0.00013421,"INCLINATION":53.2194,"RA_OF_ASC_NODE":332.5783,"ARG_OF_PERICENTER":104.7812,"MEAN_ANOMALY":255.3329,"EPHEMERIS_TYPE":0,"CLASSIFICATION_TYPE":"U","NORAD_CAT_ID":54182,"ELEMENT_SET_NO":999,"REV_AT_EPOCH":18632,"BSTAR":-0.00016671763,"MEAN_MOTION_DOT":-2.94e-5,"MEAN_MOTION_DDOT":0}]
